[{"OBJECT_NAME":"STARLINK-4589","OBJECT_ID":"2022-107AY","EPOCH":"2026-03-09T18:17:22.603488","MEAN_MOTION":15.08844063,"ECCENTRICITY":0.00014113,"INCLINATION":53.2158,"RA_OF_ASC_NODE":263.8466,"ARG_OF_PERICENTER":103.6115,"MEAN_ANOMALY":256.5035,"EPHEMERIS_TYPE":0,"CLASSIFICATION_TYPE":"U","NORAD_CAT_ID":53746,"ELEMENT_SET_NO":999,"REV_AT_EPOCH":19460,"BSTAR":-2.025779e-6,"MEAN_MOTION_DOT":-3.2e-6,"MEAN_MOTION_DDOT":0},{"OBJECT_NAME":"CHAMRAN-1","OBJECT_ID":"2024-165B","EPOCH":"2026-03-09T21:50:33.228384","MEAN_MOTION":15.10235792,"ECCENTRICITY":0.0045019,"INCLINATION":64.0789,"RA_OF_ASC_NODE":8.4365,"ARG_OF_PERICENTER":310.8781,"MEAN_ANOMALY":48.8437,"EPHEMERIS_TYPE":0,"CLASSIFICATION_TYPE":"U","NORAD_CAT_ID":61072,"ELEMENT_SET_NO":999,"REV_AT_EPOCH":8166,"BSTAR":0.0004432,"MEAN_MOTION_DOT":7.263e-5,"MEAN_MOTION_DDOT":0}]
