STARLINK-4589           
1 53746U 22107AY  26068.76206717 -.00000320  00000+0 -20258-5 0  9993
2 53746  53.2158 263.8466 0001411 103.6115 256.5035 15.08844063194605
CHAMRAN-1               
1 61072U 24165B   26068.91010681  .00007263  00000+0  44320-3 0  9995
2 61072  64.0789   8.4365 0045019 310.8781  48.8437 15.10235792 81665
